[{"OBJECT_NAME":"STARLINK-36892","OBJECT_ID":"2026-037N","EPOCH":"2026-03-05T22:00:01.999584","MEAN_MOTION":15.92372012,"ECCENTRICITY":0.00015028,"INCLINATION":42.9997,"RA_OF_ASC_NODE":221.741,"ARG_OF_PERICENTER":283.8288,"MEAN_ANOMALY":57.4942,"EPHEMERIS_TYPE":0,"CLASSIFICATION_TYPE":"U","NORAD_CAT_ID":67944,"ELEMENT_SET_NO":999,"REV_AT_EPOCH":259,"BSTAR":-0.0042008728,"MEAN_MOTION_DOT":-0.01468996,"MEAN_MOTION_DDOT":0.00061289457},{"OBJECT_NAME":"STARLINK-36908","OBJECT_ID":"2026-037P","EPOCH":"2026-03-05T22:00:01.999584","MEAN_MOTION":15.92612323,"ECCENTRICITY":0.00017941,"INCLINATION":42.9997,"RA_OF_ASC_NODE":221.7251,"ARG_OF_PERICENTER":283.1951,"MEAN_ANOMALY":64.2274,"EPHEMERIS_TYPE":0,"CLASSIFICATION_TYPE":"U","NORAD_CAT_ID":67945,"ELEMENT_SET_NO":999,"REV_AT_EPOCH":259,"BSTAR":-0.0041323713,"MEAN_MOTION_DOT":-0.01463468,"MEAN_MOTION_DDOT":0.00061009253},{"OBJECT_NAME":"STARLINK-36909","OBJECT_ID":"2026-037Q","EPOCH":"2026-03-05T22:00:01.999584","MEAN_MOTION":15.92745763,"ECCENTRICITY":0.00016657,"INCLINATION":42.9996,"RA_OF_ASC_NODE":221.7198,"ARG_OF_PERICENTER":285.3304,"MEAN_ANOMALY":64.2941,"EPHEMERIS_TYPE":0,"CLASSIFICATION_TYPE":"U","NORAD_CAT_ID":67946,"ELEMENT_SET_NO":999,"REV_AT_EPOCH":259,"BSTAR":-0.0040511662,"MEAN_MOTION_DOT":-0.01444976,"MEAN_MOTION_DDOT":0.0005968002},{"OBJECT_NAME":"STARLINK-36920","OBJECT_ID":"2026-037R","EPOCH":"2026-03-05T22:00:01.999584","MEAN_MOTION":15.92868503,"ECCENTRICITY":0.00014549,"INCLINATION":42.9999,"RA_OF_ASC_NODE":221.7117,"ARG_OF_PERICENTER":281.9827,"MEAN_ANOMALY":70.7244,"EPHEMERIS_TYPE":0,"CLASSIFICATION_TYPE":"U","NORAD_CAT_ID":67947,"ELEMENT_SET_NO":999,"REV_AT_EPOCH":259,"BSTAR":-0.0040423989,"MEAN_MOTION_DOT":-0.01451058,"MEAN_MOTION_DDOT":0.0006021369},{"OBJECT_NAME":"STARLINK-36873","OBJECT_ID":"2026-037S","EPOCH":"2026-03-05T22:00:01.999584","MEAN_MOTION":15.9299544,"ECCENTRICITY":0.00016477,"INCLINATION":42.9999,"RA_OF_ASC_NODE":221.7053,"ARG_OF_PERICENTER":285.1533,"MEAN_ANOMALY":70.0974,"EPHEMERIS_TYPE":0,"CLASSIFICATION_TYPE":"U","NORAD_CAT_ID":67948,"ELEMENT_SET_NO":999,"REV_AT_EPOCH":259,"BSTAR":-0.0039931481,"MEAN_MOTION_DOT":-0.0144312,"MEAN_MOTION_DDOT":0.00059684825},{"OBJECT_NAME":"STARLINK-36863","OBJECT_ID":"2026-037T","EPOCH":"2026-03-05T22:00:01.999584","MEAN_MOTION":15.93129309,"ECCENTRICITY":0.00019541,"INCLINATION":43,"RA_OF_ASC_NODE":221.6974,"ARG_OF_PERICENTER":284.2287,"MEAN_ANOMALY":74.1381,"EPHEMERIS_TYPE":0,"CLASSIFICATION_TYPE":"U","NORAD_CAT_ID":67949,"ELEMENT_SET_NO":999,"REV_AT_EPOCH":259,"BSTAR":-0.0040676381,"MEAN_MOTION_DOT":-0.01480078,"MEAN_MOTION_DDOT":0.00062601289},{"OBJECT_NAME":"STARLINK-36887","OBJECT_ID":"2026-037U","EPOCH":"2026-03-05T22:00:01.999584","MEAN_MOTION":15.932336,"ECCENTRICITY":0.00015198,"INCLINATION":42.9999,"RA_OF_ASC_NODE":221.6893,"ARG_OF_PERICENTER":279.6548,"MEAN_ANOMALY":81.9255,"EPHEMERIS_TYPE":0,"CLASSIFICATION_TYPE":"U","NORAD_CAT_ID":67950,"ELEMENT_SET_NO":999,"REV_AT_EPOCH":259,"BSTAR":-0.0039390998,"MEAN_MOTION_DOT":-0.01441567,"MEAN_MOTION_DDOT":0.00059706255},{"OBJECT_NAME":"STARLINK-36897","OBJECT_ID":"2026-037V","EPOCH":"2026-03-05T22:00:01.999584","MEAN_MOTION":15.93359055,"ECCENTRICITY":0.00015544,"INCLINATION":43,"RA_OF_ASC_NODE":221.6824,"ARG_OF_PERICENTER":281.9519,"MEAN_ANOMALY":82.4234,"EPHEMERIS_TYPE":0,"CLASSIFICATION_TYPE":"U","NORAD_CAT_ID":67951,"ELEMENT_SET_NO":999,"REV_AT_EPOCH":259,"BSTAR":-0.0039045591,"MEAN_MOTION_DOT":-0.01438475,"MEAN_MOTION_DDOT":0.00059544793},{"OBJECT_NAME":"STARLINK-36381","OBJECT_ID":"2026-037W","EPOCH":"2026-03-05T22:00:01.999584","MEAN_MOTION":15.93623973,"ECCENTRICITY":0.00017619,"INCLINATION":43.0002,"RA_OF_ASC_NODE":221.6694,"ARG_OF_PERICENTER":284.715,"MEAN_ANOMALY":84.7654,"EPHEMERIS_TYPE":0,"CLASSIFICATION_TYPE":"U","NORAD_CAT_ID":67952,"ELEMENT_SET_NO":999,"REV_AT_EPOCH":259,"BSTAR":-0.0038830122,"MEAN_MOTION_DOT":-0.01450652,"MEAN_MOTION_DDOT":0.00060630566},{"OBJECT_NAME":"STARLINK-36824","OBJECT_ID":"2026-037X","EPOCH":"2026-03-05T22:00:01.999584","MEAN_MOTION":15.93494533,"ECCENTRICITY":0.000168,"INCLINATION":43.0001,"RA_OF_ASC_NODE":221.6758,"ARG_OF_PERICENTER":285.5502,"MEAN_ANOMALY":81.3817,"EPHEMERIS_TYPE":0,"CLASSIFICATION_TYPE":"U","NORAD_CAT_ID":67953,"ELEMENT_SET_NO":999,"REV_AT_EPOCH":259,"BSTAR":-0.0038951079,"MEAN_MOTION_DOT":-0.01445266,"MEAN_MOTION_DDOT":0.00060141445},{"OBJECT_NAME":"STARLINK-36869","OBJECT_ID":"2026-037Y","EPOCH":"2026-03-05T22:00:01.999584","MEAN_MOTION":15.93758091,"ECCENTRICITY":0.00016981,"INCLINATION":43,"RA_OF_ASC_NODE":221.6636,"ARG_OF_PERICENTER":286.0885,"MEAN_ANOMALY":85.5858,"EPHEMERIS_TYPE":0,"CLASSIFICATION_TYPE":"U","NORAD_CAT_ID":67954,"ELEMENT_SET_NO":999,"REV_AT_EPOCH":259,"BSTAR":-0.0038324557,"MEAN_MOTION_DOT":-0.01442082,"MEAN_MOTION_DDOT":0.0006005451},{"OBJECT_NAME":"STARLINK-36872","OBJECT_ID":"2026-037Z","EPOCH":"2026-03-05T22:00:01.999584","MEAN_MOTION":15.9400441,"ECCENTRICITY":0.00016973,"INCLINATION":42.9999,"RA_OF_ASC_NODE":221.6489,"ARG_OF_PERICENTER":284.5331,"MEAN_ANOMALY":92.8045,"EPHEMERIS_TYPE":0,"CLASSIFICATION_TYPE":"U","NORAD_CAT_ID":67955,"ELEMENT_SET_NO":999,"REV_AT_EPOCH":259,"BSTAR":-0.0037807155,"MEAN_MOTION_DOT":-0.01441389,"MEAN_MOTION_DDOT":0.00060147991},{"OBJECT_NAME":"STARLINK-36918","OBJECT_ID":"2026-037AA","EPOCH":"2026-03-05T22:00:01.999584","MEAN_MOTION":15.9412614,"ECCENTRICITY":0.00016917,"INCLINATION":43.0001,"RA_OF_ASC_NODE":221.6415,"ARG_OF_PERICENTER":285.7715,"MEAN_ANOMALY":94.5377,"EPHEMERIS_TYPE":0,"CLASSIFICATION_TYPE":"U","NORAD_CAT_ID":67956,"ELEMENT_SET_NO":999,"REV_AT_EPOCH":259,"BSTAR":-0.0037488621,"MEAN_MOTION_DOT":-0.01438584,"MEAN_MOTION_DDOT":0.00060005878},{"OBJECT_NAME":"STARLINK-36829","OBJECT_ID":"2026-037AB","EPOCH":"2026-03-05T22:00:01.999584","MEAN_MOTION":15.93880714,"ECCENTRICITY":0.00018066,"INCLINATION":42.9999,"RA_OF_ASC_NODE":221.657,"ARG_OF_PERICENTER":285.2143,"MEAN_ANOMALY":89.1067,"EPHEMERIS_TYPE":0,"CLASSIFICATION_TYPE":"U","NORAD_CAT_ID":67957,"ELEMENT_SET_NO":999,"REV_AT_EPOCH":259,"BSTAR":-0.003795819,"MEAN_MOTION_DOT":-0.01437719,"MEAN_MOTION_DDOT":0.00059794059},{"OBJECT_NAME":"STARLINK-36799","OBJECT_ID":"2026-037AC","EPOCH":"2026-03-05T22:00:01.999584","MEAN_MOTION":15.94249789,"ECCENTRICITY":0.0001872,"INCLINATION":42.9997,"RA_OF_ASC_NODE":221.6354,"ARG_OF_PERICENTER":285.769,"MEAN_ANOMALY":97.1797,"EPHEMERIS_TYPE":0,"CLASSIFICATION_TYPE":"U","NORAD_CAT_ID":67958,"ELEMENT_SET_NO":999,"REV_AT_EPOCH":259,"BSTAR":-0.0037207903,"MEAN_MOTION_DOT":-0.01437333,"MEAN_MOTION_DDOT":0.00059983802},{"OBJECT_NAME":"STARLINK-36834","OBJECT_ID":"2026-037AD","EPOCH":"2026-03-05T22:00:01.999584","MEAN_MOTION":15.94510473,"ECCENTRICITY":0.00016246,"INCLINATION":42.9998,"RA_OF_ASC_NODE":221.6199,"ARG_OF_PERICENTER":282.0368,"MEAN_ANOMALY":106.8132,"EPHEMERIS_TYPE":0,"CLASSIFICATION_TYPE":"U","NORAD_CAT_ID":67959,"ELEMENT_SET_NO":999,"REV_AT_EPOCH":259,"BSTAR":-0.0037317252,"MEAN_MOTION_DOT":-0.01461453,"MEAN_MOTION_DDOT":0.00062004503}]
