STARLINK-36892          
1 67944U 26037N   26064.91668981 -.01468996  61289-3 -42009-2 0  9995
2 67944  42.9997 221.7410 0001502 283.8288  57.4942 15.92372012  2595
STARLINK-36908          
1 67945U 26037P   26064.91668981 -.01463468  61009-3 -41324-2 0  9994
2 67945  42.9997 221.7251 0001794 283.1951  64.2274 15.92612323  2598
STARLINK-36909          
1 67946U 26037Q   26064.91668981 -.01444976  59680-3 -40512-2 0  9998
2 67946  42.9996 221.7198 0001665 285.3304  64.2941 15.92745763  2597
STARLINK-36920          
1 67947U 26037R   26064.91668981 -.01451058  60214-3 -40424-2 0  9995
2 67947  42.9999 221.7117 0001454 281.9827  70.7244 15.92868503  2596
STARLINK-36873          
1 67948U 26037S   26064.91668981 -.01443120  59685-3 -39931-2 0  9998
2 67948  42.9999 221.7053 0001647 285.1533  70.0974 15.92995440  2594
STARLINK-36863          
1 67949U 26037T   26064.91668981 -.01480078  62601-3 -40676-2 0  9992
2 67949  43.0000 221.6974 0001954 284.2287  74.1381 15.93129309  2599
STARLINK-36887          
1 67950U 26037U   26064.91668981 -.01441567  59706-3 -39391-2 0  9998
2 67950  42.9999 221.6893 0001519 279.6548  81.9255 15.93233600  2597
STARLINK-36897          
1 67951U 26037V   26064.91668981 -.01438475  59545-3 -39046-2 0  9991
2 67951  43.0000 221.6824 0001554 281.9519  82.4234 15.93359055  2596
STARLINK-36381          
1 67952U 26037W   26064.91668981 -.01450652  60631-3 -38830-2 0  9991
2 67952  43.0002 221.6694 0001761 284.7150  84.7654 15.93623973  2590
STARLINK-36824          
1 67953U 26037X   26064.91668981 -.01445266  60141-3 -38951-2 0  9997
2 67953  43.0001 221.6758 0001680 285.5502  81.3817 15.93494533  2593
STARLINK-36869          
1 67954U 26037Y   26064.91668981 -.01442082  60055-3 -38325-2 0  9990
2 67954  43.0000 221.6636 0001698 286.0885  85.5858 15.93758091  2590
STARLINK-36872          
1 67955U 26037Z   26064.91668981 -.01441389  60148-3 -37807-2 0  9997
2 67955  42.9999 221.6489 0001697 284.5331  92.8045 15.94004410  2599
STARLINK-36918          
1 67956U 26037AA  26064.91668981 -.01438584  60006-3 -37489-2 0  9990
2 67956  43.0001 221.6415 0001691 285.7715  94.5377 15.94126140  2590
STARLINK-36829          
1 67957U 26037AB  26064.91668981 -.01437719  59794-3 -37958-2 0  9993
2 67957  42.9999 221.6570 0001806 285.2143  89.1067 15.93880714  2594
STARLINK-36799          
1 67958U 26037AC  26064.91668981 -.01437333  59984-3 -37208-2 0  9995
2 67958  42.9997 221.6354 0001872 285.7690  97.1797 15.94249789  2599
STARLINK-36834          
1 67959U 26037AD  26064.91668981 -.01461453  62005-3 -37317-2 0  9995
2 67959  42.9998 221.6199 0001624 282.0368 106.8132 15.94510473  2597
